STARLINK-2530           
1 48303U 21036AD  26068.66670139 -.00013026  00000+0 -42876-3 0  9993
2 48303  53.1604  88.5428 0001325  82.4327 322.2393 15.30175273  5802
TEVEL2-2                
1 63219U 25052K   26068.64848259  .00020339  00000+0  69428-3 0  9991
2 63219  97.3987 324.7700 0004693 105.7930 254.3828 15.30343745 54855
